start=new Date('2021-12-06T00:00:00.000Z').valueOf();
sats=[{"LAUNCH_DATE":"2020-03-18","MEAN_MOTION_DOT":"-0.00000947","ELEMENT_SET_NO":"999","MEAN_ANOMALY":"289.5194","MEAN_MOTION":"15.06390627","NORAD_CAT_ID":"45391","REV_AT_EPOCH":"9534","GP_ID":"191167794","REF_FRAME":"TEME","MEAN_ELEMENT_THEORY":"SGP4","SITE":"AFETR","EPOCH":"2021-12-05T14:18:23.894496","COUNTRY_CODE":"US","ECCENTRICITY":"0.00018340","CENTER_NAME":"EARTH","DECAY_DATE":null,"EPHEMERIS_TYPE":"0","OBJECT_TYPE":"PAYLOAD","FILE":"3233515","MEAN_MOTION_DDOT":"0.0000000000000","RA_OF_ASC_NODE":"287.7087","RCS_SIZE":"LARGE","TLE_LINE2":"2 45391  53.0554 287.7087 0001834  70.5993 289.5194 15.06390627 95342","OBJECT_ID":"2020-019AH","INCLINATION":"53.0554","PERIOD":"95.593","OBJECT_NAME":"STARLINK-1289","ARG_OF_PERICENTER":"70.5993","CLASSIFICATION_TYPE":"U","BSTAR":"-0.00004470100000","APOAPSIS":"548.512","PERIAPSIS":"545.972","TIME_SYSTEM":"UTC","TLE_LINE1":"1 45391U 20019AH  21339.59610989 -.00000947  00000-0 -44701-4 0  9991","SEMIMAJOR_AXIS":"6925.377"},{"COUNTRY_CODE":"US","ECCENTRICITY":"0.00020010","CENTER_NAME":"EARTH","DECAY_DATE":null,"SITE":"AFETR","MEAN_ELEMENT_THEORY":"SGP4","REF_FRAME":"TEME","EPOCH":"2021-12-05T13:55:33.168864","NORAD_CAT_ID":"45392","GP_ID":"191168545","REV_AT_EPOCH":"9536","ELEMENT_SET_NO":"999","MEAN_MOTION_DOT":"0.00006120","LAUNCH_DATE":"2020-03-18","MEAN_ANOMALY":"275.5916","MEAN_MOTION":"15.08463169","TIME_SYSTEM":"UTC","TLE_LINE1":"1 45392U 20019AJ  21339.58024501  .00006120  00000-0  40634-3 0  9997","SEMIMAJOR_AXIS":"6919.032","OBJECT_NAME":"STARLINK-1290","BSTAR":"0.00040634000000","APOAPSIS":"542.282","PERIAPSIS":"539.513","CLASSIFICATION_TYPE":"U","ARG_OF_PERICENTER":"84.5301","RCS_SIZE":"LARGE","PERIOD":"95.461","TLE_LINE2":"2 45392  52.9941 283.7697 0002001  84.5301 275.5916 15.08463169 95362","OBJECT_ID":"2020-019AJ","INCLINATION":"52.9941","OBJECT_TYPE":"PAYLOAD","EPHEMERIS_TYPE":"0","FILE":"3233515","MEAN_MOTION_DDOT":"0.0000000000000","RA_OF_ASC_NODE":"283.7697"},{"EPHEMERIS_TYPE":"0","OBJECT_TYPE":"PAYLOAD","RA_OF_ASC_NODE":"287.8754","MEAN_MOTION_DDOT":"0.0000000000000","FILE":"3233179","RCS_SIZE":"LARGE","INCLINATION":"53.0545","OBJECT_ID":"2020-019AK","TLE_LINE2":"2 45393  53.0545 287.8754 0001578  69.4011 290.7147 15.06392605 95372","PERIOD":"95.593","OBJECT_NAME":"STARLINK-1291","CLASSIFICATION_TYPE":"U","ARG_OF_PERICENTER":"69.4011","PERIAPSIS":"546.143","APOAPSIS":"548.329","BSTAR":"0.00002675700000","TLE_LINE1":"1 45393U 20019AK  21339.55924628  .00000117  00000-0  26757-4 0  9995","TIME_SYSTEM":"UTC","SEMIMAJOR_AXIS":"6925.371","LAUNCH_DATE":"2020-03-18","ELEMENT_SET_NO":"999","MEAN_MOTION_DOT":"0.00000117","MEAN_MOTION":"15.06392605","MEAN_ANOMALY":"290.7147","NORAD_CAT_ID":"45393","REV_AT_EPOCH":"9537","GP_ID":"191136158","MEAN_ELEMENT_THEORY":"SGP4","REF_FRAME":"TEME","SITE":"AFETR","EPOCH":"2021-12-05T13:25:18.878592","ECCENTRICITY":"0.00015780","COUNTRY_CODE":"US","DECAY_DATE":null,"CENTER_NAME":"EARTH"},{"NORAD_CAT_ID":"45394","GP_ID":"191169547","REV_AT_EPOCH":"9535","MEAN_MOTION_DOT":"0.00002826","ELEMENT_SET_NO":"999","LAUNCH_DATE":"2020-03-18","MEAN_MOTION":"15.06399264","MEAN_ANOMALY":"305.8184","ECCENTRICITY":"0.00021980","COUNTRY_CODE":"US","DECAY_DATE":null,"CENTER_NAME":"EARTH","SITE":"AFETR","MEAN_ELEMENT_THEORY":"SGP4","REF_FRAME":"TEME","EPOCH":"2021-12-05T14:07:46.889760","RCS_SIZE":"LARGE","PERIOD":"95.592","INCLINATION":"53.0541","OBJECT_ID":"2020-019AL","TLE_LINE2":"2 45394  53.0541 287.7440 0002198  54.3010 305.8184 15.06399264 95356","OBJECT_TYPE":"PAYLOAD","EPHEMERIS_TYPE":"0","RA_OF_ASC_NODE":"287.7440","MEAN_MOTION_DDOT":"0.0000000000000","FILE":"3233515","TLE_LINE1":"1 45394U 20019AL  21339.58873715  .00002826  00000-0  20859-3 0  9994","TIME_SYSTEM":"UTC","SEMIMAJOR_AXIS":"6925.351","OBJECT_NAME":"STARLINK-1292","APOAPSIS":"548.738","PERIAPSIS":"545.694","BSTAR":"0.00020859000000","CLASSIFICATION_TYPE":"U","ARG_OF_PERICENTER":"54.3010"},{"FILE":"3233492","RA_OF_ASC_NODE":"287.9150","MEAN_MOTION_DDOT":"0.0000000000000","OBJECT_TYPE":"PAYLOAD","EPHEMERIS_TYPE":"0","PERIOD":"95.593","OBJECT_ID":"2020-019AM","TLE_LINE2":"2 45395  53.0550 287.9150 0002118  56.7743 303.3449 15.06390778 95378","INCLINATION":"53.0550","RCS_SIZE":"LARGE","BSTAR":"0.00002766400000","APOAPSIS":"548.709","PERIAPSIS":"545.775","ARG_OF_PERICENTER":"56.7743","CLASSIFICATION_TYPE":"U","OBJECT_NAME":"STARLINK-1297","SEMIMAJOR_AXIS":"6925.377","TIME_SYSTEM":"UTC","TLE_LINE1":"1 45395U 20019AM  21339.55187783  .00000130  00000-0  27664-4 0  9993","MEAN_ANOMALY":"303.3449","MEAN_MOTION":"15.06390778","MEAN_MOTION_DOT":"0.00000130","ELEMENT_SET_NO":"999","LAUNCH_DATE":"2020-03-18","GP_ID":"191148599","REV_AT_EPOCH":"9537","NORAD_CAT_ID":"45395","EPOCH":"2021-12-05T13:14:42.244512","SITE":"AFETR","REF_FRAME":"TEME","MEAN_ELEMENT_THEORY":"SGP4","CENTER_NAME":"EARTH","DECAY_DATE":null,"ECCENTRICITY":"0.00021180","COUNTRY_CODE":"US"},{"PERIOD":"95.593","OBJECT_ID":"2020-019AN","TLE_LINE2":"2 45396  53.0543 286.4994 0002093  55.8869 304.2318 15.06389222 95379","INCLINATION":"53.0543","RCS_SIZE":"LARGE","FILE":"3233515","MEAN_MOTION_DDOT":"0.0000000000000","RA_OF_ASC_NODE":"286.4994","OBJECT_TYPE":"PAYLOAD","EPHEMERIS_TYPE":"0","SEMIMAJOR_AXIS":"6925.382","TIME_SYSTEM":"UTC","TLE_LINE1":"1 45396U 20019AN  21339.86517869 -.00000358  00000-0 -51507-5 0  9998","BSTAR":"-0.00000515070000","PERIAPSIS":"545.797","APOAPSIS":"548.696","ARG_OF_PERICENTER":"55.8869","CLASSIFICATION_TYPE":"U","OBJECT_NAME":"STARLINK-1303","GP_ID":"191168045","REV_AT_EPOCH":"9537","NORAD_CAT_ID":"45396","MEAN_ANOMALY":"304.2318","MEAN_MOTION":"15.06389222","MEAN_MOTION_DOT":"-0.00000358","ELEMENT_SET_NO":"999","LAUNCH_DATE":"2020-03-18","CENTER_NAME":"EARTH","DECAY_DATE":null,"COUNTRY_CODE":"US","ECCENTRICITY":"0.00020930","EPOCH":"2021-12-05T20:45:51.438816","SITE":"AFETR","MEAN_ELEMENT_THEORY":"SGP4","REF_FRAME":"TEME"},{"SEMIMAJOR_AXIS":"6925.380","TIME_SYSTEM":"UTC","TLE_LINE1":"1 45397U 20019AP  21339.94258311  .00000076  00000-0  23989-4 0  9999","ARG_OF_PERICENTER":"58.6966","CLASSIFICATION_TYPE":"U","BSTAR":"0.00002398900000","APOAPSIS":"548.638","PERIAPSIS":"545.852","OBJECT_NAME":"STARLINK-1307","TLE_LINE2":"2 45397  53.0542 286.1518 0002012  58.6966 301.4220 15.06389740 95497","OBJECT_ID":"2020-019AP","INCLINATION":"53.0542","PERIOD":"95.593","RCS_SIZE":"LARGE","FILE":"3233515","RA_OF_ASC_NODE":"286.1518","MEAN_MOTION_DDOT":"0.0000000000000","EPHEMERIS_TYPE":"0","OBJECT_TYPE":"PAYLOAD","CENTER_NAME":"EARTH","DECAY_DATE":null,"COUNTRY_CODE":"US","ECCENTRICITY":"0.00020120","EPOCH":"2021-12-05T22:37:19.180704","REF_FRAME":"TEME","MEAN_ELEMENT_THEORY":"SGP4","SITE":"AFETR","REV_AT_EPOCH":"9549","GP_ID":"191169297","NORAD_CAT_ID":"45397","MEAN_ANOMALY":"301.4220","MEAN_MOTION":"15.06389740","LAUNCH_DATE":"2020-03-18","ELEMENT_SET_NO":"999","MEAN_MOTION_DOT":"0.00000076"},{"MEAN_MOTION_DDOT":"0.0000000000000","RA_OF_ASC_NODE":"289.7561","FILE":"3233179","OBJECT_TYPE":"PAYLOAD","EPHEMERIS_TYPE":"0","PERIOD":"95.592","INCLINATION":"53.0541","OBJECT_ID":"2020-019AQ","TLE_LINE2":"2 45398  53.0541 289.7561 0001975  57.2216 302.8963 15.06397728 95308","RCS_SIZE":"LARGE","PERIAPSIS":"545.853","APOAPSIS":"548.588","BSTAR":"0.00002544800000","CLASSIFICATION_TYPE":"U","ARG_OF_PERICENTER":"57.2216","OBJECT_NAME":"STARLINK-1312","SEMIMAJOR_AXIS":"6925.356","TLE_LINE1":"1 45398U 20019AQ  21339.13904932  .00000097  00000-0  25448-4 0  9993","TIME_SYSTEM":"UTC","MEAN_MOTION":"15.06397728","MEAN_ANOMALY":"302.8963","MEAN_MOTION_DOT":"0.00000097","ELEMENT_SET_NO":"999","LAUNCH_DATE":"2020-03-18","GP_ID":"191136908","REV_AT_EPOCH":"9530","NORAD_CAT_ID":"45398","EPOCH":"2021-12-05T03:20:13.861248","SITE":"AFETR","REF_FRAME":"TEME","MEAN_ELEMENT_THEORY":"SGP4","DECAY_DATE":null,"CENTER_NAME":"EARTH","ECCENTRICITY":"0.00019750","COUNTRY_CODE":"US"},{"MEAN_ANOMALY":"296.8821","MEAN_MOTION":"15.06401086","LAUNCH_DATE":"2020-03-18","ELEMENT_SET_NO":"999","MEAN_MOTION_DOT":"0.00000010","REV_AT_EPOCH":"9549","GP_ID":"191137160","NORAD_CAT_ID":"45399","EPOCH":"2021-12-05T02:44:23.683200","REF_FRAME":"TEME","MEAN_ELEMENT_THEORY":"SGP4","SITE":"AFETR","CENTER_NAME":"EARTH","DECAY_DATE":null,"COUNTRY_CODE":"US","ECCENTRICITY":"0.00018240","FILE":"3233179","MEAN_MOTION_DDOT":"0.0000000000000","RA_OF_ASC_NODE":"279.8690","EPHEMERIS_TYPE":"0","OBJECT_TYPE":"PAYLOAD","OBJECT_ID":"2020-019AR","TLE_LINE2":"2 45399  53.0542 279.8690 0001824  63.2355 296.8821 15.06401086 95495","INCLINATION":"53.0542","PERIOD":"95.592","RCS_SIZE":"LARGE","ARG_OF_PERICENTER":"63.2355","CLASSIFICATION_TYPE":"U","BSTAR":"0.00001955700000","APOAPSIS":"548.473","PERIAPSIS":"545.947","OBJECT_NAME":"STARLINK-1255","SEMIMAJOR_AXIS":"6925.345","TIME_SYSTEM":"UTC","TLE_LINE1":"1 45399U 20019AR  21339.11416300  .00000010  00000-0  19557-4 0  9998"},{"COUNTRY_CODE":"US","ECCENTRICITY":"0.00020690","CENTER_NAME":"EARTH","DECAY_DATE":null,"SITE":"AFETR","MEAN_ELEMENT_THEORY":"SGP4","REF_FRAME":"TEME","EPOCH":"2021-12-05T12:38:52.457856","NORAD_CAT_ID":"45400","GP_ID":"191137409","REV_AT_EPOCH":"9548","MEAN_MOTION_DOT":"0.00000252","ELEMENT_SET_NO":"999","LAUNCH_DATE":"2020-03-18","MEAN_ANOMALY":"300.6680","MEAN_MOTION":"15.06388079","TIME_SYSTEM":"UTC","TLE_LINE1":"1 45400U 20019AS  21339.52699604  .00000252  00000-0  35810-4 0  9994","SEMIMAJOR_AXIS":"6925.385","OBJECT_NAME":"STARLINK-1213","BSTAR":"0.00003581000000","APOAPSIS":"548.683","PERIAPSIS":"545.817","ARG_OF_PERICENTER":"59.4513","CLASSIFICATION_TYPE":"U","RCS_SIZE":"LARGE","PERIOD":"95.593","OBJECT_ID":"2020-019AS","TLE_LINE2":"2 45400  53.0554 278.0267 0002069  59.4513 300.6680 15.06388079 95489","INCLINATION":"53.0554","OBJECT_TYPE":"PAYLOAD","EPHEMERIS_TYPE":"0","FILE":"3233179","MEAN_MOTION_DDOT":"0.0000000000000","RA_OF_ASC_NODE":"278.0267"}];
